{"type": "FeatureCollection", "features": [ {"type": "Feature", "properties": {"norad_id": 66880, "name": "STARLINK-35844", "group": "last-30-days", "lat": 22.47734663993118, "lon": 43.67449590001589, "alt_km": 345.11587313968266, "timestamp": "2025-12-22T08:58:19.048223+00:00", "meta": {"OBJECT_NAME": "STARLINK-35844", "OBJECT_ID": "2025-283C", "EPOCH": "2025-12-22T04:00:01.998720", "MEAN_MOTION": 15.74588116, "ECCENTRICITY": 0.0001108, "INCLINATION": 53.158, "RA_OF_ASC_NODE": 26.6301, "ARG_OF_PERICENTER": 109.7824, "MEAN_ANOMALY": 184.2464, "EPHEMERIS_TYPE": 0, "CLASSIFICATION_TYPE": "U", "NORAD_CAT_ID": 66880, "ELEMENT_SET_NO": 999, "REV_AT_EPOCH": 394, "BSTAR": -0.011221, "MEAN_MOTION_DOT": -0.01473909, "MEAN_MOTION_DDOT": 0}, "tle": {"line1": "1 66880U 25283C   25356.16668980 -.01473909  00000+0 -11221-1 0  9995", "line2": "2 66880  53.1580  26.6301 0001108 109.7824 184.2464 15.74588116  3942"}}, "geometry": {"type": "Point", "coordinates": [43.67449590001589, 22.47734663993118]}}, {"type": "Feature", "properties": {"norad_id": 66881, "name": "STARLINK-35860", "group": "last-30-days", "lat": 25.37471554194182, "lon": 46.424244230384446, "alt_km": 344.57192816738734, "timestamp": "2025-12-22T08:58:19.048233+00:00", "meta": {"OBJECT_NAME": "STARLINK-35860", "OBJECT_ID": "2025-283D", "EPOCH": "2025-12-22T04:00:01.998720", "MEAN_MOTION": 15.74592753, "ECCENTRICITY": 5.87e-05, "INCLINATION": 53.158, "RA_OF_ASC_NODE": 26.6212, "ARG_OF_PERICENTER": 76.698, "MEAN_ANOMALY": 221.1596, "EPHEMERIS_TYPE": 0, "CLASSIFICATION_TYPE": "U", "NORAD_CAT_ID": 66881, "ELEMENT_SET_NO": 999, "REV_AT_EPOCH": 394, "BSTAR": -0.011285, "MEAN_MOTION_DOT": -0.01481324, "MEAN_MOTION_DDOT": 0}, "tle": {"line1": "1 66881U 25283D   25356.16668980 -.01481324  00000+0 -11285-1 0  9996", "line2": "2 66881  53.1580  26.6212 0000587  76.6980 221.1596 15.74592753  3948"}}, "geometry": {"type": "Point", "coordinates": [46.424244230384446, 25.37471554194182]}}, {"type": "Feature", "properties": {"norad_id": 66882, "name": "STARLINK-35912", "group": "last-30-days", "lat": 26.800637618444046, "lon": 47.84648205826275, "alt_km": 343.9604572071339, "timestamp": "2025-12-22T08:58:19.048243+00:00", "meta": {"OBJECT_NAME": "STARLINK-35912", "OBJECT_ID": "2025-283E", "EPOCH": "2025-12-22T04:00:01.998720", "MEAN_MOTION": 15.74588901, "ECCENTRICITY": 0.0001167, "INCLINATION": 53.1578, "RA_OF_ASC_NODE": 26.6181, "ARG_OF_PERICENTER": 76.6427, "MEAN_ANOMALY": 223.1343, "EPHEMERIS_TYPE": 0, "CLASSIFICATION_TYPE": "U", "NORAD_CAT_ID": 66882, "ELEMENT_SET_NO": 999, "REV_AT_EPOCH": 394, "BSTAR": -0.011256, "MEAN_MOTION_DOT": -0.01478063, "MEAN_MOTION_DDOT": 0}, "tle": {"line1": "1 66882U 25283E   25356.16668980 -.01478063  00000+0 -11256-1 0  9991", "line2": "2 66882  53.1578  26.6181 0001167  76.6427 223.1343 15.74588901  3944"}}, "geometry": {"type": "Point", "coordinates": [47.84648205826275, 26.800637618444046]}}, {"type": "Feature", "properties": {"norad_id": 66883, "name": "STARLINK-35947", "group": "last-30-days", "lat": 28.211364428209624, "lon": 49.303274781418104, "alt_km": 343.96913187510745, "timestamp": "2025-12-22T08:58:19.048255+00:00", "meta": {"OBJECT_NAME": "STARLINK-35947", "OBJECT_ID": "2025-283F", "EPOCH": "2025-12-22T04:00:01.998720", "MEAN_MOTION": 15.74590456, "ECCENTRICITY": 9.74e-05, "INCLINATION": 53.1579, "RA_OF_ASC_NODE": 26.6143, "ARG_OF_PERICENTER": 85.8684, "MEAN_ANOMALY": 215.8199, "EPHEMERIS_TYPE": 0, "CLASSIFICATION_TYPE": "U", "NORAD_CAT_ID": 66883, "ELEMENT_SET_NO": 999, "REV_AT_EPOCH": 399, "BSTAR": -0.011191, "MEAN_MOTION_DOT": -0.01470549, "MEAN_MOTION_DDOT": 0}, "tle": {"line1": "1 66883U 25283F   25356.16668980 -.01470549  00000+0 -11191-1 0  9991", "line2": "2 66883  53.1579  26.6143 0000974  85.8684 215.8199 15.74590456  3996"}}, "geometry": {"type": "Point", "coordinates": [49.303274781418104, 28.211364428209624]}}, {"type": "Feature", "properties": {"norad_id": 66884, "name": "STARLINK-36057", "group": "last-30-days", "lat": 30.989299141775295, "lon": 52.34209216431973, "alt_km": 343.76620919506786, "timestamp": "2025-12-22T08:58:19.048269+00:00", "meta": {"OBJECT_NAME": "STARLINK-36057", "OBJECT_ID": "2025-283G", "EPOCH": "2025-12-22T04:00:01.998720", "MEAN_MOTION": 15.74582745, "ECCENTRICITY": 0.0001179, "INCLINATION": 53.1577, "RA_OF_ASC_NODE": 26.6055, "ARG_OF_PERICENTER": 124.7308, "MEAN_ANOMALY": 180.8003, "EPHEMERIS_TYPE": 0, "CLASSIFICATION_TYPE": "U", "NORAD_CAT_ID": 66884, "ELEMENT_SET_NO": 999, "REV_AT_EPOCH": 394, "BSTAR": -0.011169, "MEAN_MOTION_DOT": -0.01467657, "MEAN_MOTION_DDOT": 0}, "tle": {"line1": "1 66884U 25283G   25356.16668980 -.01467657  00000+0 -11169-1 0  9993", "line2": "2 66884  53.1577  26.6055 0001179 124.7308 180.8003 15.74582745  3943"}}, "geometry": {"type": "Point", "coordinates": [52.34209216431973, 30.989299141775295]}}, {"type": "Feature", "properties": {"norad_id": 66885, "name": "STARLINK-35954", "group": "last-30-days", "lat": 29.613625796278193, "lon": 50.806422346501435, "alt_km": 343.63706036251097, "timestamp": "2025-12-22T08:58:19.048279+00:00", "meta": {"OBJECT_NAME": "STARLINK-35954", "OBJECT_ID": "2025-283H", "EPOCH": "2025-12-22T04:00:01.998720", "MEAN_MOTION": 15.74581519, "ECCENTRICITY": 0.0001035, "INCLINATION": 53.1577, "RA_OF_ASC_NODE": 26.6095, "ARG_OF_PERICENTER": 87.9677, "MEAN_ANOMALY": 215.6495, "EPHEMERIS_TYPE": 0, "CLASSIFICATION_TYPE": "U", "NORAD_CAT_ID": 66885, "ELEMENT_SET_NO": 999, "REV_AT_EPOCH": 394, "BSTAR": -0.011173, "MEAN_MOTION_DOT": -0.01467996, "MEAN_MOTION_DDOT": 0}, "tle": {"line1": "1 66885U 25283H   25356.16668980 -.01467996  00000+0 -11173-1 0  9995", "line2": "2 66885  53.1577  26.6095 0001035  87.9677 215.6495 15.74581519  3948"}}, "geometry": {"type": "Point", "coordinates": [50.806422346501435, 29.613625796278193]}}, {"type": "Feature", "properties": {"norad_id": 66886, "name": "STARLINK-35900", "group": "last-30-days", "lat": 32.35474974715063, "lon": 53.932538681728886, "alt_km": 343.2115987295865, "timestamp": "2025-12-22T08:58:19.048289+00:00", "meta": {"OBJECT_NAME": "STARLINK-35900", "OBJECT_ID": "2025-283J", "EPOCH": "2025-12-22T04:00:01.998720", "MEAN_MOTION": 15.74588788, "ECCENTRICITY": 0.0001082, "INCLINATION": 53.1577, "RA_OF_ASC_NODE": 26.6013, "ARG_OF_PERICENTER": 96.599, "MEAN_ANOMALY": 210.8497, "EPHEMERIS_TYPE": 0, "CLASSIFICATION_TYPE": "U", "NORAD_CAT_ID": 66886, "ELEMENT_SET_NO": 999, "REV_AT_EPOCH": 394, "BSTAR": -0.011277, "MEAN_MOTION_DOT": -0.01480466, "MEAN_MOTION_DDOT": 0}, "tle": {"line1": "1 66886U 25283J   25356.16668980 -.01480466  00000+0 -11277-1 0  9998", "line2": "2 66886  53.1577  26.6013 0001082  96.5990 210.8497 15.74588788  3949"}}, "geometry": {"type": "Point", "coordinates": [53.932538681728886, 32.35474974715063]}}, {"type": "Feature", "properties": {"norad_id": 66887, "name": "STARLINK-35925", "group": "last-30-days", "lat": 33.69786593656161, "lon": 55.56995025776059, "alt_km": 342.78264146077254, "timestamp": "2025-12-22T08:58:19.048299+00:00", "meta": {"OBJECT_NAME": "STARLINK-35925", "OBJECT_ID": "2025-283K", "EPOCH": "2025-12-22T04:00:01.998720", "MEAN_MOTION": 15.74585755, "ECCENTRICITY": 0.0001067, "INCLINATION": 53.1576, "RA_OF_ASC_NODE": 26.5975, "ARG_OF_PERICENTER": 71.9943, "MEAN_ANOMALY": 237.372, "EPHEMERIS_TYPE": 0, "CLASSIFICATION_TYPE": "U", "NORAD_CAT_ID": 66887, "ELEMENT_SET_NO": 999, "REV_AT_EPOCH": 394, "BSTAR": -0.01123, "MEAN_MOTION_DOT": -0.01474779, "MEAN_MOTION_DDOT": 0}, "tle": {"line1": "1 66887U 25283K   25356.16668980 -.01474779  00000+0 -11230-1 0  9998", "line2": "2 66887  53.1576  26.5975 0001067  71.9943 237.3720 15.74585755  3947"}}, "geometry": {"type": "Point", "coordinates": [55.56995025776059, 33.69786593656161]}}, {"type": "Feature", "properties": {"norad_id": 66888, "name": "STARLINK-35919", "group": "last-30-days", "lat": 34.99861658564117, "lon": 57.23205857296031, "alt_km": 342.5269492614025, "timestamp": "2025-12-22T08:58:19.048309+00:00", "meta": {"OBJECT_NAME": "STARLINK-35919", "OBJECT_ID": "2025-283L", "EPOCH": "2025-12-22T04:00:01.998720", "MEAN_MOTION": 15.74555102, "ECCENTRICITY": 0.0001184, "INCLINATION": 53.1578, "RA_OF_ASC_NODE": 26.5933, "ARG_OF_PERICENTER": 76.7016, "MEAN_ANOMALY": 234.568, "EPHEMERIS_TYPE": 0, "CLASSIFICATION_TYPE": "U", "NORAD_CAT_ID": 66888, "ELEMENT_SET_NO": 999, "REV_AT_EPOCH": 394, "BSTAR": -0.010728, "MEAN_MOTION_DOT": -0.0141486, "MEAN_MOTION_DDOT": 0}, "tle": {"line1": "1 66888U 25283L   25356.16668980 -.01414860  00000+0 -10728-1 0  9995", "line2": "2 66888  53.1578  26.5933 0001184  76.7016 234.5680 15.74555102  3945"}}, "geometry": {"type": "Point", "coordinates": [57.23205857296031, 34.99861658564117]}}, {"type": "Feature", "properties": {"norad_id": 66889, "name": "STARLINK-35852", "group": "last-30-days", "lat": 36.30607133809563, "lon": 58.98930042316554, "alt_km": 342.50962517135395, "timestamp": "2025-12-22T08:58:19.048319+00:00", "meta": {"OBJECT_NAME": "STARLINK-35852", "OBJECT_ID": "2025-283M", "EPOCH": "2025-12-22T04:00:01.998720", "MEAN_MOTION": 15.7458699, "ECCENTRICITY": 0.0001068, "INCLINATION": 53.1577, "RA_OF_ASC_NODE": 26.5888, "ARG_OF_PERICENTER": 95.667, "MEAN_ANOMALY": 217.5285, "EPHEMERIS_TYPE": 0, "CLASSIFICATION_TYPE": "U", "NORAD_CAT_ID": 66889, "ELEMENT_SET_NO": 999, "REV_AT_EPOCH": 394, "BSTAR": -0.011234, "MEAN_MOTION_DOT": -0.01475345, "MEAN_MOTION_DDOT": 0}, "tle": {"line1": "1 66889U 25283M   25356.16668980 -.01475345  00000+0 -11234-1 0  9994", "line2": "2 66889  53.1577  26.5888 0001068  95.6670 217.5285 15.74586990  3942"}}, "geometry": {"type": "Point", "coordinates": [58.98930042316554, 36.30607133809563]}}]}